[{"OBJECT_NAME":"CELESTIS-17 & SHERPA-FX1","OBJECT_ID":"2021-006CB","EPOCH":"2026-03-09T15:26:05.078112","MEAN_MOTION":15.30994801,"ECCENTRICITY":0.000663,"INCLINATION":97.2397,"RA_OF_ASC_NODE":112.1052,"ARG_OF_PERICENTER":178.1385,"MEAN_ANOMALY":181.9882,"EPHEMERIS_TYPE":0,"CLASSIFICATION_TYPE":"U","NORAD_CAT_ID":47486,"ELEMENT_SET_NO":999,"REV_AT_EPOCH":28406,"BSTAR":0.00024301,"MEAN_MOTION_DOT":7.207e-5,"MEAN_MOTION_DDOT":0},{"OBJECT_NAME":"STARLINK-31277","OBJECT_ID":"2024-082W","EPOCH":"2026-03-09T12:18:18.609696","MEAN_MOTION":15.27558795,"ECCENTRICITY":6.19e-5,"INCLINATION":43.0003,"RA_OF_ASC_NODE":140.9135,"ARG_OF_PERICENTER":200.516,"MEAN_ANOMALY":159.5667,"EPHEMERIS_TYPE":0,"CLASSIFICATION_TYPE":"U","NORAD_CAT_ID":59651,"ELEMENT_SET_NO":999,"REV_AT_EPOCH":10498,"BSTAR":-8.2603e-5,"MEAN_MOTION_DOT":-2.532e-5,"MEAN_MOTION_DDOT":0}]
